[{"OBJECT_NAME":"ONEWEB-0188","OBJECT_ID":"2021-031X","EPOCH":"2025-09-09T06:12:03.491136","MEAN_MOTION":13.14503942,"ECCENTRICITY":0.00018771,"INCLINATION":87.9092,"RA_OF_ASC_NODE":345.6753,"ARG_OF_PERICENTER":100.7565,"MEAN_ANOMALY":259.3776,"EPHEMERIS_TYPE":0,"CLASSIFICATION_TYPE":"U","NORAD_CAT_ID":48231,"ELEMENT_SET_NO":999,"REV_AT_EPOCH":21123,"BSTAR":0.00077272894,"MEAN_MOTION_DOT":2.99e-6,"MEAN_MOTION_DDOT":0},{"OBJECT_NAME":"ONEWEB-0220","OBJECT_ID":"2021-031Y","EPOCH":"2025-09-09T05:19:32.389824","MEAN_MOTION":13.14503188,"ECCENTRICITY":0.00020206,"INCLINATION":87.9092,"RA_OF_ASC_NODE":345.6208,"ARG_OF_PERICENTER":106.2262,"MEAN_ANOMALY":253.909,"EPHEMERIS_TYPE":0,"CLASSIFICATION_TYPE":"U","NORAD_CAT_ID":48232,"ELEMENT_SET_NO":999,"REV_AT_EPOCH":21149,"BSTAR":-0.00019027566,"MEAN_MOTION_DOT":-5.8e-7,"MEAN_MOTION_DDOT":0},{"OBJECT_NAME":"ONEWEB-0165","OBJECT_ID":"2021-031Z","EPOCH":"2025-09-09T06:00:37.935648","MEAN_MOTION":13.14502237,"ECCENTRICITY":0.00018523,"INCLINATION":87.9077,"RA_OF_ASC_NODE":345.6566,"ARG_OF_PERICENTER":105.8618,"MEAN_ANOMALY":254.2716,"EPHEMERIS_TYPE":0,"CLASSIFICATION_TYPE":"U","NORAD_CAT_ID":48233,"ELEMENT_SET_NO":999,"REV_AT_EPOCH":21145,"BSTAR":0.00082844071,"MEAN_MOTION_DOT":3.2e-6,"MEAN_MOTION_DDOT":0},{"OBJECT_NAME":"ONEWEB-0199","OBJECT_ID":"2021-031AA","EPOCH":"2025-09-09T05:37:48.533664","MEAN_MOTION":13.14503707,"ECCENTRICITY":0.00017937,"INCLINATION":87.9086,"RA_OF_ASC_NODE":345.6251,"ARG_OF_PERICENTER":96.0366,"MEAN_ANOMALY":264.0968,"EPHEMERIS_TYPE":0,"CLASSIFICATION_TYPE":"U","NORAD_CAT_ID":48234,"ELEMENT_SET_NO":999,"REV_AT_EPOCH":21135,"BSTAR":0.0003566679,"MEAN_MOTION_DOT":1.45e-6,"MEAN_MOTION_DDOT":0},{"OBJECT_NAME":"ONEWEB-0203","OBJECT_ID":"2021-031AB","EPOCH":"2025-09-09T05:24:05.375808","MEAN_MOTION":13.14505405,"ECCENTRICITY":0.00015828,"INCLINATION":87.9085,"RA_OF_ASC_NODE":345.6285,"ARG_OF_PERICENTER":100.2557,"MEAN_ANOMALY":259.8752,"EPHEMERIS_TYPE":0,"CLASSIFICATION_TYPE":"U","NORAD_CAT_ID":48235,"ELEMENT_SET_NO":999,"REV_AT_EPOCH":21136,"BSTAR":-1.9971534e-5,"MEAN_MOTION_DOT":5.0e-8,"MEAN_MOTION_DDOT":0},{"OBJECT_NAME":"ONEWEB-0197","OBJECT_ID":"2021-031AC","EPOCH":"2025-09-09T06:37:00.249312","MEAN_MOTION":13.14500662,"ECCENTRICITY":0.00021611,"INCLINATION":87.9085,"RA_OF_ASC_NODE":345.6167,"ARG_OF_PERICENTER":97.9269,"MEAN_ANOMALY":262.2106,"EPHEMERIS_TYPE":0,"CLASSIFICATION_TYPE":"U","NORAD_CAT_ID":48236,"ELEMENT_SET_NO":999,"REV_AT_EPOCH":21128,"BSTAR":1.0701766e-5,"MEAN_MOTION_DOT":1.7e-7,"MEAN_MOTION_DDOT":0},{"OBJECT_NAME":"ONEWEB-0194","OBJECT_ID":"2021-031AD","EPOCH":"2025-09-09T06:07:29.660160","MEAN_MOTION":13.14504066,"ECCENTRICITY":0.00016987,"INCLINATION":87.9093,"RA_OF_ASC_NODE":345.6348,"ARG_OF_PERICENTER":93.1557,"MEAN_ANOMALY":266.9767,"EPHEMERIS_TYPE":0,"CLASSIFICATION_TYPE":"U","NORAD_CAT_ID":48237,"ELEMENT_SET_NO":999,"REV_AT_EPOCH":21145,"BSTAR":0.00079377327,"MEAN_MOTION_DOT":3.07e-6,"MEAN_MOTION_DDOT":0},{"OBJECT_NAME":"ONEWEB-0193","OBJECT_ID":"2021-031AE","EPOCH":"2025-09-09T06:30:20.505024","MEAN_MOTION":13.14502871,"ECCENTRICITY":0.00016642,"INCLINATION":87.9079,"RA_OF_ASC_NODE":345.6336,"ARG_OF_PERICENTER":86.0313,"MEAN_ANOMALY":274.1007,"EPHEMERIS_TYPE":0,"CLASSIFICATION_TYPE":"U","NORAD_CAT_ID":48238,"ELEMENT_SET_NO":999,"REV_AT_EPOCH":21140,"BSTAR":9.097672e-5,"MEAN_MOTION_DOT":4.6e-7,"MEAN_MOTION_DDOT":0},{"OBJECT_NAME":"ONEWEB-0191","OBJECT_ID":"2021-031AF","EPOCH":"2025-09-09T06:46:18.640416","MEAN_MOTION":13.14504497,"ECCENTRICITY":0.00018376,"INCLINATION":87.9099,"RA_OF_ASC_NODE":345.6078,"ARG_OF_PERICENTER":98.0175,"MEAN_ANOMALY":262.1163,"EPHEMERIS_TYPE":0,"CLASSIFICATION_TYPE":"U","NORAD_CAT_ID":48239,"ELEMENT_SET_NO":999,"REV_AT_EPOCH":21126,"BSTAR":-0.00015179099,"MEAN_MOTION_DOT":-4.4e-7,"MEAN_MOTION_DDOT":0},{"OBJECT_NAME":"ONEWEB-0195","OBJECT_ID":"2021-031AG","EPOCH":"2025-09-09T06:13:10.818336","MEAN_MOTION":13.14505568,"ECCENTRICITY":0.00017381,"INCLINATION":87.9096,"RA_OF_ASC_NODE":345.6097,"ARG_OF_PERICENTER":113.0922,"MEAN_ANOMALY":247.0391,"EPHEMERIS_TYPE":0,"CLASSIFICATION_TYPE":"U","NORAD_CAT_ID":48240,"ELEMENT_SET_NO":999,"REV_AT_EPOCH":21124,"BSTAR":0.00079540017,"MEAN_MOTION_DOT":3.08e-6,"MEAN_MOTION_DDOT":0},{"OBJECT_NAME":"ONEWEB-0201","OBJECT_ID":"2021-031AH","EPOCH":"2025-09-09T05:56:15.580320","MEAN_MOTION":13.14504951,"ECCENTRICITY":0.00020962,"INCLINATION":87.9097,"RA_OF_ASC_NODE":345.6615,"ARG_OF_PERICENTER":106.7718,"MEAN_ANOMALY":253.3642,"EPHEMERIS_TYPE":0,"CLASSIFICATION_TYPE":"U","NORAD_CAT_ID":48241,"ELEMENT_SET_NO":999,"REV_AT_EPOCH":21147,"BSTAR":0.00073825091,"MEAN_MOTION_DOT":2.86e-6,"MEAN_MOTION_DDOT":0},{"OBJECT_NAME":"ONEWEB-0207","OBJECT_ID":"2021-031AJ","EPOCH":"2025-09-09T05:27:31.164192","MEAN_MOTION":13.14502764,"ECCENTRICITY":0.00020558,"INCLINATION":87.9086,"RA_OF_ASC_NODE":345.6236,"ARG_OF_PERICENTER":102.5578,"MEAN_ANOMALY":257.5782,"EPHEMERIS_TYPE":0,"CLASSIFICATION_TYPE":"U","NORAD_CAT_ID":48242,"ELEMENT_SET_NO":999,"REV_AT_EPOCH":21138,"BSTAR":4.3445177e-5,"MEAN_MOTION_DOT":2.9e-7,"MEAN_MOTION_DDOT":0},{"OBJECT_NAME":"ONEWEB-0208","OBJECT_ID":"2021-031AK","EPOCH":"2025-09-09T06:50:52.361664","MEAN_MOTION":13.14503873,"ECCENTRICITY":0.00017378,"INCLINATION":87.9091,"RA_OF_ASC_NODE":345.6265,"ARG_OF_PERICENTER":105.6449,"MEAN_ANOMALY":254.4873,"EPHEMERIS_TYPE":0,"CLASSIFICATION_TYPE":"U","NORAD_CAT_ID":48243,"ELEMENT_SET_NO":999,"REV_AT_EPOCH":21140,"BSTAR":-0.00040740094,"MEAN_MOTION_DOT":-1.38e-6,"MEAN_MOTION_DDOT":0},{"OBJECT_NAME":"ONEWEB-0200","OBJECT_ID":"2021-031AL","EPOCH":"2025-09-09T05:58:22.007712","MEAN_MOTION":13.14503745,"ECCENTRICITY":0.00017854,"INCLINATION":87.9088,"RA_OF_ASC_NODE":345.6246,"ARG_OF_PERICENTER":102.9639,"MEAN_ANOMALY":257.169,"EPHEMERIS_TYPE":0,"CLASSIFICATION_TYPE":"U","NORAD_CAT_ID":48244,"ELEMENT_SET_NO":999,"REV_AT_EPOCH":21132,"BSTAR":0.00081694168,"MEAN_MOTION_DOT":3.16e-6,"MEAN_MOTION_DDOT":0},{"OBJECT_NAME":"ONEWEB-0217","OBJECT_ID":"2021-031AM","EPOCH":"2025-09-09T06:21:10.666656","MEAN_MOTION":13.14502306,"ECCENTRICITY":0.00016478,"INCLINATION":87.9097,"RA_OF_ASC_NODE":345.6075,"ARG_OF_PERICENTER":109.3387,"MEAN_ANOMALY":250.7921,"EPHEMERIS_TYPE":0,"CLASSIFICATION_TYPE":"U","NORAD_CAT_ID":48245,"ELEMENT_SET_NO":999,"REV_AT_EPOCH":21127,"BSTAR":0.00046454619,"MEAN_MOTION_DOT":1.85e-6,"MEAN_MOTION_DDOT":0},{"OBJECT_NAME":"ONEWEB-0211","OBJECT_ID":"2021-045A","EPOCH":"2025-09-09T05:03:59.776992","MEAN_MOTION":13.16085027,"ECCENTRICITY":0.00015679,"INCLINATION":87.905,"RA_OF_ASC_NODE":315.1954,"ARG_OF_PERICENTER":97.2287,"MEAN_ANOMALY":262.9021,"EPHEMERIS_TYPE":0,"CLASSIFICATION_TYPE":"U","NORAD_CAT_ID":48767,"ELEMENT_SET_NO":999,"REV_AT_EPOCH":20748,"BSTAR":-1.129387e-5,"MEAN_MOTION_DOT":9.0e-8,"MEAN_MOTION_DDOT":0}]
