ONEWEB-0188             
1 48231U 21031X   25252.25837374  .00000299  00000+0  77273-3 0  9998
2 48231  87.9092 345.6753 0001877 100.7565 259.3776 13.14503942211235
ONEWEB-0220             
1 48232U 21031Y   25252.22190266 -.00000058  00000+0 -19028-3 0  9997
2 48232  87.9092 345.6208 0002020 106.2262 253.9090 13.14503188211496
ONEWEB-0165             
1 48233U 21031Z   25252.25043907  .00000320  00000+0  82844-3 0  9996
2 48233  87.9077 345.6566 0001852 105.8618 254.2716 13.14502237211458
ONEWEB-0199             
1 48234U 21031AA  25252.23458951  .00000145  00000+0  35667-3 0  9990
2 48234  87.9086 345.6251 0001793  96.0366 264.0968 13.14503707211355
ONEWEB-0203             
1 48235U 21031AB  25252.22506222  .00000005  00000+0 -19972-4 0  9993
2 48235  87.9085 345.6285 0001582 100.2557 259.8752 13.14505405211369
ONEWEB-0197             
1 48236U 21031AC  25252.27569733  .00000017  00000+0  10702-4 0  9999
2 48236  87.9085 345.6167 0002161  97.9269 262.2106 13.14500662211287
ONEWEB-0194             
1 48237U 21031AD  25252.25520440  .00000307  00000+0  79377-3 0  9994
2 48237  87.9093 345.6348 0001698  93.1557 266.9767 13.14504066211455
ONEWEB-0193             
1 48238U 21031AE  25252.27107066  .00000046  00000+0  90977-4 0  9992
2 48238  87.9079 345.6336 0001664  86.0313 274.1007 13.14502871211406
ONEWEB-0191             
1 48239U 21031AF  25252.28216019 -.00000044  00000+0 -15179-3 0  9993
2 48239  87.9099 345.6078 0001837  98.0175 262.1163 13.14504497211263
ONEWEB-0195             
1 48240U 21031AG  25252.25915299  .00000308  00000+0  79540-3 0  9991
2 48240  87.9096 345.6097 0001738 113.0922 247.0391 13.14505568211244
ONEWEB-0201             
1 48241U 21031AH  25252.24740255  .00000286  00000+0  73825-3 0  9994
2 48241  87.9097 345.6615 0002096 106.7718 253.3642 13.14504951211471
ONEWEB-0207             
1 48242U 21031AJ  25252.22744403  .00000029  00000+0  43445-4 0  9993
2 48242  87.9086 345.6236 0002055 102.5578 257.5782 13.14502764211383
ONEWEB-0208             
1 48243U 21031AK  25252.28532826 -.00000138  00000+0 -40740-3 0  9991
2 48243  87.9091 345.6265 0001737 105.6449 254.4873 13.14503873211401
ONEWEB-0200             
1 48244U 21031AL  25252.24886583  .00000316  00000+0  81694-3 0  9999
2 48244  87.9088 345.6246 0001785 102.9639 257.1690 13.14503745211327
ONEWEB-0217             
1 48245U 21031AM  25252.26470679  .00000185  00000+0  46455-3 0  9997
2 48245  87.9097 345.6075 0001647 109.3387 250.7921 13.14502306211278
ONEWEB-0211             
1 48767U 21045A   25252.21110853  .00000009  00000+0 -11294-4 0  9991
2 48767  87.9050 315.1954 0001567  97.2287 262.9021 13.16085027207481
